O3B MPOWER F1           
1 54755U 22174A   23343.74637624 -.00000008  00000+0  00000+0 0  9993
2 54755   0.0553  16.9826 0005841 255.4327 267.7987  5.00118390 19293
